NAVSTAR 75 (USA 265)    
1 41019U 15062A   26061.58186006 -.00000071  00000+0  00000+0 0  9995
2 41019  56.8916  34.9181 0111458 231.4820 127.5052  2.00567039 75699
ELEKTRO-L 2             
1 41105U 15074A   26061.75609569 -.00000131  00000+0  00000+0 0  9994
2 41105   6.4265  71.8311 0003492 235.2351 111.1512  1.00270716 37439
GSAT0209 (GALILEO 12)   
1 41174U 15079A   26057.76103078  .00000003  00000+0  00000+0 0  9992
2 41174  55.7556 104.2904 0004770 323.2858  36.7546  1.70474460 62890
GSAT0208 (GALILEO 11)   
1 41175U 15079B   26060.32760050  .00000013  00000+0  00000+0 0  9999
2 41175  55.7558 104.2170 0004043 323.8191  36.2374  1.70474277 63359
NAVSTAR 76 (USA 266)    
1 41328U 16007A   26061.66715688  .00000020  00000+0  00000+0 0  9994
2 41328  55.4544  93.6817 0095391 245.9540 113.1161  2.00556830 73707
GSAT0211 (GALILEO 14)   
1 41549U 16030A   26061.62472215  .00000011  00000+0  00000+0 0  9997
2 41549  55.1322 224.6224 0003632  25.7212 334.2388  1.70473766 60859
GSAT0210 (GALILEO 13)   
1 41550U 16030B   26061.29541970  .00000012  00000+0  00000+0 0  9998
2 41550  55.1304 224.6297 0001173 192.8511 167.0898  1.70473885 60846
INSAT-3DR               
1 41752U 16054A   26061.73239175 -.00000093  00000+0  00000+0 0  9998
2 41752   0.0425  97.5075 0013383 184.0690 216.5622  1.00272217 34756
GSAT0207 (GALILEO 15)   
1 41859U 16069A   26059.22748061  .00000008  00000+0  00000+0 0  9997
2 41859  55.4267 104.1007 0005031 309.1503  50.8842  1.70474383 57546
GSAT0212 (GALILEO 16)   
1 41860U 16069B   26058.49445287  .00000005  00000+0  00000+0 0  9998
2 41860  55.4238 104.1162 0003541 336.3420  23.7177  1.70474549 57782
GSAT0213 (GALILEO 17)   
1 41861U 16069C   26058.27531726  .00000004  00000+0  00000+0 0  9998
2 41861  55.4260 104.1303 0005130 291.6331  68.3872  1.70474834 57644
GSAT0214 (GALILEO 18)   
1 41862U 16069D   26059.00795760  .00000007  00000+0  00000+0 0  9994
2 41862  55.4250 104.1026 0004132 296.1582  63.8775  1.70474701 57785
GOES 16                 
1 41866U 16071A   26061.63873292 -.00000108  00000+0  00000+0 0  9993
2 41866   0.1427  90.2616 0002602 216.0510 339.3388  1.00271558 34036
GSAT-17                 
1 42815U 17040B   26061.84702685 -.00000274  00000+0  00000+0 0  9999
2 42815   0.0419 294.2771 0005186 352.2976 272.4761  1.00270422 31722
GSAT0215 (GALILEO 19)   
1 43055U 17079A   26059.49798153  .00000025  00000+0  00000+0 0  9994
2 43055  55.1089 224.4942 0000658  16.7992 343.1591  1.70474358 51132
GSAT0216 (GALILEO 20)   
1 43056U 17079B   26060.96235113  .00000013  00000+0  00000+0 0  9998
2 43056  55.1088 224.4540 0001688 322.1798  37.7539  1.70474524 51175
GSAT0217 (GALILEO 21)   
1 43057U 17079C   26060.59652636  .00000016  00000+0  00000+0 0  9994
2 43057  55.1095 224.4618 0002061 357.3180   2.6289  1.70474416 51152
